GORIZONT 1 [-]          
1 11158U 78118A   17323.26532252 -.00000280  00000-0  00000-0 0  9995
2 11158  15.0566 263.5917 3509083 197.6295 146.4300  1.00288593 91533
GORIZONT 2 [-]          
1 11440U 79062A   17324.51990365 -.00000098  00000-0  00000-0 0  9997
2 11440  12.6320 321.7852 0007802 276.9387  83.5589  1.00237210106633
GORIZONT 3 [-]          
1 11648U 79105A   17324.11905625  .00000108  00000-0  00000+0 0  9996
2 11648  12.7466 322.9820 0010944 189.3524 355.8800  1.00313788 91060
GORIZONT 4 [-]          
1 11841U 80049A   17323.91473255 -.00000205  00000-0  00000-0 0  9996
2 11841  13.7554 327.5053 0007126 290.1392 258.8370  0.98630111202634
GORIZONT 5 [-]          
1 13092U 82020A   17324.05123240  .00000012  00000-0  00000-0 0  9994
2 13092  14.5221 332.3068 0031274 173.6241   5.4358  0.98529644 90740
GORIZONT 6 [-]          
1 13624U 82103A   17324.49351507 -.00000221  00000-0  00000-0 0  9997
2 13624  13.3845 332.1881 0003973 270.2575 272.0292  1.00172565 89556
GORIZONT 7 [-]          
1 14160U 83066A   17324.53983417 -.00000063  00000-0  00000+0 0  9991
2 14160  14.6551 340.0518 0015620 275.1437  98.4213  0.98346522124003
GORIZONT 8 [-]          
1 14532U 83118A   17323.45948837 -.00000149  00000-0  00000-0 0  9995
2 14532  14.7311 341.6634 0022552 105.5544 257.6608  0.98269844 89732
GORIZONT 9 [-]          
1 14940U 84041A   17324.50500623 -.00000293  00000-0  00000-0 0  9998
2 14940  13.9646 340.2363 0006358 233.8126 123.3379  1.00288597 90543
GORIZONT 10 [-]         
1 15144U 84078A   17319.38553139 -.00000274  00000-0  00000+0 0  9993
2 15144  14.0071 341.2688 0006017 279.5676 256.9402  1.00249079123161
GORIZONT 11 [-]         
1 15484U 85007A   17324.53172610 -.00000107  00000-0  00000+0 0  9992
2 15484  14.0657 343.0092 0003161 277.0575 248.0370  1.00158088121225
GORIZONT 12 [-]         
1 16769U 86044A   17324.57615368 -.00000153  00000-0  00000-0 0  9999
2 16769  14.3724 347.8981 0006977 260.8270  99.9530  1.00198469115871
GORIZONT 13 [-]         
1 17083U 86090A   17323.53074690 -.00000082  00000-0  00000+0 0  9992
2 17083  15.8763 353.9628 0020471 285.4787 205.2500  0.96725155 88372
GORIZONT 14 [-]         
1 17969U 87040A   17324.59390789 -.00000081  00000-0  00000+0 0  9997
2 17969  15.3577 346.2375 0025676 137.8301  12.6470  0.97657984 89272
GORIZONT 15 [-]         
1 19017U 88028A   17324.12649985 -.00000146  00000-0  00000-0 0  9997
2 19017  15.9219 357.2438 0030497 116.5658   8.3077  0.97828955 88873
GORIZONT 16 [-]         
1 19397U 88071A   17321.89108505 -.00000227  00000-0  00000-0 0  9995
2 19397  14.8247 356.1683 0013685 342.6792  17.9324  0.99986594106917
GORIZONT 17 [-]         
1 19765U 89004A   17324.40546323 -.00000298  00000-0  00000-0 0  9993
2 19765  15.1570 359.0984 0015331  87.9618 270.0714  0.99068935104554
GORIZONT 18 [-]         
1 20107U 89052A   17324.51383045  .00000058  00000-0  00000+0 0  9992
2 20107  15.1000   0.4313 0040723 270.4611 210.8149  0.99397735103288
GORIZONT 19 [-]         
1 20263U 89081A   17324.12000700  .00000040  00000-0  00000+0 0  9999
2 20263  14.8690 359.8716 0008075 246.9463 271.4973  1.00343795103094
GORIZONT 20 [-]         
1 20659U 90054A   17320.62478175 -.00000172  00000-0  00000-0 0  9994
2 20659  15.0957   2.8278 0005406 190.5055 167.0575  1.00321539100262
GORIZONT 21 [-]         
1 20923U 90094A   17324.48868723 -.00000374  00000-0  00000-0 0  9996
2 20923  15.0444   3.5643 0007115 225.1325 127.1199  1.00192956 99057
GORIZONT 22 [-]         
1 20953U 90102A   17323.75532082  .00000123  00000-0  00000-0 0  9995
2 20953  14.9846   3.8757 0007899 275.3500  85.0817  1.00355079 98970
GORIZONT 23 [-]         
1 21533U 91046A   17324.25608692  .00000031  00000-0  00000-0 0  9993
2 21533  15.4560   7.6146 0011013 258.9478 127.5116  0.98906191 15721
GORIZONT 24 [-]         
1 21759U 91074A   17323.85671090 -.00000195  00000-0  00000-0 0  9993
2 21759  15.4756   9.2623 0020793 197.8703 161.5788  0.98444596 94123
GORIZONT 25 [-]         
1 21922U 92017A   17324.47823675 -.00000342  00000-0  00000-0 0  9994
2 21922  15.0462   8.9736 0023293  22.8684 339.1914  0.99857024 93688
GORIZONT 26 [-]         
1 22041U 92043A   17324.40673227 -.00000003  00000-0  00000+0 0  9998
2 22041  15.0772  10.6555 0034501 198.9744 201.0249  0.99243644 92426
GORIZONT 27 [-]         
1 22245U 92082A   17324.15879469 -.00000071  00000-0  00000+0 0  9990
2 22245  15.0010  10.7662 0016114 295.8848  61.0035  1.00144442 95787
GORIZONT 28 [-]         
1 22880U 93069A   17324.30114644 -.00000308  00000-0  00000-0 0  9999
2 22880  14.8606  14.1918 0027341  90.5042 212.4545  0.99658414 87923
GORIZONT 29 [-]         
1 22907U 93072A   17324.62033818 -.00000371  00000-0  00000+0 0  9990
2 22907  14.8041  13.8730 0015882 277.1819 110.4149  1.00136378 87858
GORIZONT 30 [-]         
1 23108U 94030A   17324.48011365  .00000024  00000-0  00000-0 0  9991
2 23108  14.7434  14.8724 0006976 237.3009 160.0042  1.00278883 86089
GORIZONT 31 [-]         
1 23775U 96005A   17324.62208703 -.00000340  00000-0  00000+0 0  9996
2 23775  14.1945  20.4776 0020270 172.8024 205.9144  0.99890017 79779
GORIZONT 32 [-]         
1 23880U 96034A   17324.70113795 -.00000159  00000-0  00000+0 0  9998
2 23880  14.0994  21.1064 0013046 277.8785  97.0383  1.00137311 78688
GORIZONT 33 [-]         
1 26372U 00029A   17324.12584086  .00000126  00000-0  00000-0 0  9991
2 26372  12.0195  30.7911 0003887 238.2368 225.4660  1.00189939 64037
